KUIPER-00079            
1 64826U 25151L   25223.83335648  .00052238  00000+0  16104-2 0  9997
2 64826  51.8806 159.4821 0005210 231.0736 215.4016 15.33077258  5270
KUIPER-00080            
1 64827U 25151M   25223.83335648 -.00544386  00000+0 -17489-1 0  9996
2 64827  51.8807 159.5346 0004297 234.6593 194.8958 15.34003051  4072
KUIPER-00082            
1 64828U 25151N   25223.55726716  .00037838  00000+0  10671-2 0  9990
2 64828  51.8800 160.8186 0004909 231.5242 128.5304 15.36033008  4032
KUIPER-00083            
1 64829U 25151P   25223.56385823  .00016707  00000+0  48500-3 0  9997
2 64829  51.8788 160.8594 0005075 239.1299 120.9188 15.35610352  5222
KUIPER-00084            
1 64830U 25151Q   25223.83335648 -.01145378  00000+0 -53395-1 0  9995
2 64830  51.8856 160.2426 0006229 243.4841 177.0185 15.22112073  4065
KUIPER-00085            
1 64831U 25151R   25223.55508656  .00050882  00000+0  14238-2 0  9992
2 64831  51.8843 160.8075 0006162 233.0942 126.9480 15.36135481  4032
KUIPER-00086            
1 64832U 25151S   25223.43616301  .00032018  00000+0  92198-3 0  9990
2 64832  51.8774 161.5051 0005235 251.7684 108.2733 15.35459770  4019
KUIPER-00087            
1 64833U 25151T   25223.55897146  .00041493  00000+0  11743-2 0  9995
2 64833  51.8795 160.8339 0004781 224.5399 135.5203 15.35880291  4033
